[{"OBJECT_NAME":"ONEWEB-0562","OBJECT_ID":"2023-029D","EPOCH":"2026-03-09T16:17:10.919904","MEAN_MOTION":13.20770955,"ECCENTRICITY":8.723e-5,"INCLINATION":87.9163,"RA_OF_ASC_NODE":294.3285,"ARG_OF_PERICENTER":61.6933,"MEAN_ANOMALY":298.4288,"EPHEMERIS_TYPE":0,"CLASSIFICATION_TYPE":"U","NORAD_CAT_ID":55799,"ELEMENT_SET_NO":999,"REV_AT_EPOCH":14801,"BSTAR":-0.00043162314,"MEAN_MOTION_DOT":-1.63e-6,"MEAN_MOTION_DDOT":0},{"OBJECT_NAME":"DELTA 1 DEB","OBJECT_ID":"1975-052KN","EPOCH":"2026-03-09T13:36:55.578816","MEAN_MOTION":13.32956029,"ECCENTRICITY":0.00560667,"INCLINATION":99.7258,"RA_OF_ASC_NODE":99.4615,"ARG_OF_PERICENTER":311.9339,"MEAN_ANOMALY":200.7502,"EPHEMERIS_TYPE":0,"CLASSIFICATION_TYPE":"U","NORAD_CAT_ID":26834,"ELEMENT_SET_NO":999,"REV_AT_EPOCH":21495,"BSTAR":2.8110394e-5,"MEAN_MOTION_DOT":-2.8e-7,"MEAN_MOTION_DDOT":0}]
